[{"OBJECT_NAME":"STARLINK-30593","OBJECT_ID":"2023-161R","EPOCH":"2023-11-23T22:00:00.999936","MEAN_MOTION":15.1867144,"ECCENTRICITY":0.0001325,"INCLINATION":53.0524,"RA_OF_ASC_NODE":81.1354,"ARG_OF_PERICENTER":89.2263,"MEAN_ANOMALY":359.5383,"EPHEMERIS_TYPE":0,"CLASSIFICATION_TYPE":"U","NORAD_CAT_ID":58112,"ELEMENT_SET_NO":999,"REV_AT_EPOCH":606,"BSTAR":0.0018912,"MEAN_MOTION_DOT":0.00039586,"MEAN_MOTION_DDOT":0},{"OBJECT_NAME":"STARLINK-30353","OBJECT_ID":"2023-161S","EPOCH":"2023-11-23T22:00:00.999936","MEAN_MOTION":15.18663281,"ECCENTRICITY":0.000167,"INCLINATION":53.0526,"RA_OF_ASC_NODE":81.0843,"ARG_OF_PERICENTER":71.0538,"MEAN_ANOMALY":43.339,"EPHEMERIS_TYPE":0,"CLASSIFICATION_TYPE":"U","NORAD_CAT_ID":58113,"ELEMENT_SET_NO":999,"REV_AT_EPOCH":610,"BSTAR":0.0017559,"MEAN_MOTION_DOT":0.00036708,"MEAN_MOTION_DDOT":0},{"OBJECT_NAME":"STARLINK-30572","OBJECT_ID":"2023-161T","EPOCH":"2023-11-23T22:00:00.999936","MEAN_MOTION":15.18687577,"ECCENTRICITY":0.0001423,"INCLINATION":53.0526,"RA_OF_ASC_NODE":81.0806,"ARG_OF_PERICENTER":89.8742,"MEAN_ANOMALY":26.6981,"EPHEMERIS_TYPE":0,"CLASSIFICATION_TYPE":"U","NORAD_CAT_ID":58114,"ELEMENT_SET_NO":999,"REV_AT_EPOCH":606,"BSTAR":0.0014089,"MEAN_MOTION_DOT":0.00029381,"MEAN_MOTION_DDOT":0},{"OBJECT_NAME":"STARLINK-30580","OBJECT_ID":"2023-161U","EPOCH":"2023-11-23T22:00:00.999936","MEAN_MOTION":15.18698531,"ECCENTRICITY":0.0001446,"INCLINATION":53.053,"RA_OF_ASC_NODE":81.0301,"ARG_OF_PERICENTER":100.4184,"MEAN_ANOMALY":41.7055,"EPHEMERIS_TYPE":0,"CLASSIFICATION_TYPE":"U","NORAD_CAT_ID":58115,"ELEMENT_SET_NO":999,"REV_AT_EPOCH":606,"BSTAR":0.00081146,"MEAN_MOTION_DOT":0.00016763,"MEAN_MOTION_DDOT":0},{"OBJECT_NAME":"STARLINK-30493","OBJECT_ID":"2023-161V","EPOCH":"2023-11-23T22:00:00.999936","MEAN_MOTION":15.18690618,"ECCENTRICITY":0.0001253,"INCLINATION":53.053,"RA_OF_ASC_NODE":81.0256,"ARG_OF_PERICENTER":89.6449,"MEAN_ANOMALY":54.6117,"EPHEMERIS_TYPE":0,"CLASSIFICATION_TYPE":"U","NORAD_CAT_ID":58116,"ELEMENT_SET_NO":999,"REV_AT_EPOCH":606,"BSTAR":-5.6127e-5,"MEAN_MOTION_DOT":-1.496e-5,"MEAN_MOTION_DDOT":0},{"OBJECT_NAME":"STARLINK-30601","OBJECT_ID":"2023-161W","EPOCH":"2023-11-24T06:00:02.000160","MEAN_MOTION":15.18679484,"ECCENTRICITY":0.0001195,"INCLINATION":53.0539,"RA_OF_ASC_NODE":79.4486,"ARG_OF_PERICENTER":99.2919,"MEAN_ANOMALY":94.0172,"EPHEMERIS_TYPE":0,"CLASSIFICATION_TYPE":"U","NORAD_CAT_ID":58117,"ELEMENT_SET_NO":999,"REV_AT_EPOCH":641,"BSTAR":0.0040562,"MEAN_MOTION_DOT":0.00085834,"MEAN_MOTION_DDOT":0},{"OBJECT_NAME":"STARLINK-30795","OBJECT_ID":"2023-162A","EPOCH":"2023-11-23T22:00:00.999936","MEAN_MOTION":15.15957758,"ECCENTRICITY":0.0002041,"INCLINATION":42.9994,"RA_OF_ASC_NODE":4.8482,"ARG_OF_PERICENTER":255.5462,"MEAN_ANOMALY":302.8644,"EPHEMERIS_TYPE":0,"CLASSIFICATION_TYPE":"U","NORAD_CAT_ID":58118,"ELEMENT_SET_NO":999,"REV_AT_EPOCH":607,"BSTAR":-0.00075396,"MEAN_MOTION_DOT":-0.00014931,"MEAN_MOTION_DDOT":0},{"OBJECT_NAME":"STARLINK-30765","OBJECT_ID":"2023-162B","EPOCH":"2023-11-23T22:00:00.999936","MEAN_MOTION":15.26215812,"ECCENTRICITY":0.0001507,"INCLINATION":43.0006,"RA_OF_ASC_NODE":4.2611,"ARG_OF_PERICENTER":267.211,"MEAN_ANOMALY":175.725,"EPHEMERIS_TYPE":0,"CLASSIFICATION_TYPE":"U","NORAD_CAT_ID":58119,"ELEMENT_SET_NO":999,"REV_AT_EPOCH":610,"BSTAR":-0.089692,"MEAN_MOTION_DOT":-0.02125491,"MEAN_MOTION_DDOT":0},{"OBJECT_NAME":"STARLINK-30768","OBJECT_ID":"2023-162C","EPOCH":"2023-11-23T22:00:00.999936","MEAN_MOTION":15.15974355,"ECCENTRICITY":0.0002249,"INCLINATION":42.9995,"RA_OF_ASC_NODE":4.7887,"ARG_OF_PERICENTER":259.3909,"MEAN_ANOMALY":323.8942,"EPHEMERIS_TYPE":0,"CLASSIFICATION_TYPE":"U","NORAD_CAT_ID":58120,"ELEMENT_SET_NO":999,"REV_AT_EPOCH":599,"BSTAR":-0.0024977,"MEAN_MOTION_DOT":-0.00048724,"MEAN_MOTION_DDOT":0},{"OBJECT_NAME":"STARLINK-30799","OBJECT_ID":"2023-162D","EPOCH":"2023-11-23T22:00:00.999936","MEAN_MOTION":15.26644994,"ECCENTRICITY":0.0001382,"INCLINATION":43.0005,"RA_OF_ASC_NODE":4.2393,"ARG_OF_PERICENTER":270.1301,"MEAN_ANOMALY":181.6636,"EPHEMERIS_TYPE":0,"CLASSIFICATION_TYPE":"U","NORAD_CAT_ID":58121,"ELEMENT_SET_NO":999,"REV_AT_EPOCH":598,"BSTAR":-0.088295,"MEAN_MOTION_DOT":-0.021205,"MEAN_MOTION_DDOT":0},{"OBJECT_NAME":"STARLINK-30759","OBJECT_ID":"2023-162E","EPOCH":"2023-11-24T06:00:02.000160","MEAN_MOTION":15.1594268,"ECCENTRICITY":0.000172,"INCLINATION":42.9991,"RA_OF_ASC_NODE":2.8819,"ARG_OF_PERICENTER":269.0897,"MEAN_ANOMALY":0.4011,"EPHEMERIS_TYPE":0,"CLASSIFICATION_TYPE":"U","NORAD_CAT_ID":58122,"ELEMENT_SET_NO":999,"REV_AT_EPOCH":641,"BSTAR":-0.00012379,"MEAN_MOTION_DOT":-2.649e-5,"MEAN_MOTION_DDOT":0},{"OBJECT_NAME":"STARLINK-30781","OBJECT_ID":"2023-162F","EPOCH":"2023-11-24T06:00:02.000160","MEAN_MOTION":15.15958939,"ECCENTRICITY":0.0001499,"INCLINATION":42.9992,"RA_OF_ASC_NODE":2.8521,"ARG_OF_PERICENTER":272.1827,"MEAN_ANOMALY":9.7546,"EPHEMERIS_TYPE":0,"CLASSIFICATION_TYPE":"U","NORAD_CAT_ID":58123,"ELEMENT_SET_NO":999,"REV_AT_EPOCH":642,"BSTAR":-0.00096847,"MEAN_MOTION_DOT":-0.00019103,"MEAN_MOTION_DDOT":0},{"OBJECT_NAME":"STARLINK-30754","OBJECT_ID":"2023-162G","EPOCH":"2023-11-23T22:00:00.999936","MEAN_MOTION":15.27055177,"ECCENTRICITY":0.0001408,"INCLINATION":43.0006,"RA_OF_ASC_NODE":4.2172,"ARG_OF_PERICENTER":272.983,"MEAN_ANOMALY":187.7123,"EPHEMERIS_TYPE":0,"CLASSIFICATION_TYPE":"U","NORAD_CAT_ID":58124,"ELEMENT_SET_NO":999,"REV_AT_EPOCH":607,"BSTAR":-0.087203,"MEAN_MOTION_DOT":-0.02120739,"MEAN_MOTION_DDOT":0},{"OBJECT_NAME":"STARLINK-30766","OBJECT_ID":"2023-162H","EPOCH":"2023-11-24T06:00:02.000160","MEAN_MOTION":15.16553937,"ECCENTRICITY":0.0001191,"INCLINATION":42.9993,"RA_OF_ASC_NODE":2.7928,"ARG_OF_PERICENTER":267.5489,"MEAN_ANOMALY":38.943,"EPHEMERIS_TYPE":0,"CLASSIFICATION_TYPE":"U","NORAD_CAT_ID":58125,"ELEMENT_SET_NO":999,"REV_AT_EPOCH":642,"BSTAR":-0.045921,"MEAN_MOTION_DOT":-0.00849765,"MEAN_MOTION_DDOT":0},{"OBJECT_NAME":"STARLINK-30767","OBJECT_ID":"2023-162J","EPOCH":"2023-11-23T22:00:00.999936","MEAN_MOTION":15.18918013,"ECCENTRICITY":0.0001816,"INCLINATION":42.9999,"RA_OF_ASC_NODE":4.6174,"ARG_OF_PERICENTER":260.7209,"MEAN_ANOMALY":33.757,"EPHEMERIS_TYPE":0,"CLASSIFICATION_TYPE":"U","NORAD_CAT_ID":58126,"ELEMENT_SET_NO":999,"REV_AT_EPOCH":611,"BSTAR":-0.11072,"MEAN_MOTION_DOT":-0.02111708,"MEAN_MOTION_DDOT":0},{"OBJECT_NAME":"STARLINK-30790","OBJECT_ID":"2023-162K","EPOCH":"2023-11-23T22:00:00.999936","MEAN_MOTION":15.19373241,"ECCENTRICITY":0.0001512,"INCLINATION":42.9999,"RA_OF_ASC_NODE":4.5903,"ARG_OF_PERICENTER":262.5805,"MEAN_ANOMALY":43.1944,"EPHEMERIS_TYPE":0,"CLASSIFICATION_TYPE":"U","NORAD_CAT_ID":58127,"ELEMENT_SET_NO":999,"REV_AT_EPOCH":607,"BSTAR":-0.10938,"MEAN_MOTION_DOT":-0.02113751,"MEAN_MOTION_DDOT":0},{"OBJECT_NAME":"STARLINK-30787","OBJECT_ID":"2023-162L","EPOCH":"2023-11-23T22:00:00.999936","MEAN_MOTION":15.19827471,"ECCENTRICITY":0.0001443,"INCLINATION":43.0001,"RA_OF_ASC_NODE":4.5627,"ARG_OF_PERICENTER":263.9656,"MEAN_ANOMALY":52.9427,"EPHEMERIS_TYPE":0,"CLASSIFICATION_TYPE":"U","NORAD_CAT_ID":58128,"ELEMENT_SET_NO":999,"REV_AT_EPOCH":605,"BSTAR":-0.10797,"MEAN_MOTION_DOT":-0.02114396,"MEAN_MOTION_DDOT":0},{"OBJECT_NAME":"STARLINK-30756","OBJECT_ID":"2023-162M","EPOCH":"2023-11-23T22:00:00.999936","MEAN_MOTION":15.27421852,"ECCENTRICITY":0.0001433,"INCLINATION":43.0004,"RA_OF_ASC_NODE":4.1943,"ARG_OF_PERICENTER":277.2317,"MEAN_ANOMALY":192.6298,"EPHEMERIS_TYPE":0,"CLASSIFICATION_TYPE":"U","NORAD_CAT_ID":58129,"ELEMENT_SET_NO":999,"REV_AT_EPOCH":608,"BSTAR":-0.086227,"MEAN_MOTION_DOT":-0.02120756,"MEAN_MOTION_DDOT":0},{"OBJECT_NAME":"STARLINK-30783","OBJECT_ID":"2023-162N","EPOCH":"2023-11-23T22:00:00.999936","MEAN_MOTION":15.20734422,"ECCENTRICITY":0.0001469,"INCLINATION":43.0001,"RA_OF_ASC_NODE":4.51,"ARG_OF_PERICENTER":265.1423,"MEAN_ANOMALY":73.5426,"EPHEMERIS_TYPE":0,"CLASSIFICATION_TYPE":"U","NORAD_CAT_ID":58130,"ELEMENT_SET_NO":999,"REV_AT_EPOCH":599,"BSTAR":-0.10503,"MEAN_MOTION_DOT":-0.02112728,"MEAN_MOTION_DDOT":0},{"OBJECT_NAME":"STARLINK-30757","OBJECT_ID":"2023-162P","EPOCH":"2023-11-23T22:00:00.999936","MEAN_MOTION":15.21184392,"ECCENTRICITY":0.0001716,"INCLINATION":43.0002,"RA_OF_ASC_NODE":4.4844,"ARG_OF_PERICENTER":278.1526,"MEAN_ANOMALY":71.1764,"EPHEMERIS_TYPE":0,"CLASSIFICATION_TYPE":"U","NORAD_CAT_ID":58131,"ELEMENT_SET_NO":999,"REV_AT_EPOCH":611,"BSTAR":-0.10335,"MEAN_MOTION_DOT":-0.02107503,"MEAN_MOTION_DDOT":0},{"OBJECT_NAME":"STARLINK-30770","OBJECT_ID":"2023-162Q","EPOCH":"2023-11-23T22:00:00.999936","MEAN_MOTION":15.27647883,"ECCENTRICITY":0.0002607,"INCLINATION":43.0003,"RA_OF_ASC_NODE":4.1711,"ARG_OF_PERICENTER":283.7802,"MEAN_ANOMALY":195.3935,"EPHEMERIS_TYPE":0,"CLASSIFICATION_TYPE":"U","NORAD_CAT_ID":58132,"ELEMENT_SET_NO":999,"REV_AT_EPOCH":607,"BSTAR":-0.084839,"MEAN_MOTION_DOT":-0.02103713,"MEAN_MOTION_DDOT":0},{"OBJECT_NAME":"STARLINK-30758","OBJECT_ID":"2023-162R","EPOCH":"2023-11-23T22:00:00.999936","MEAN_MOTION":15.21642468,"ECCENTRICITY":0.0001412,"INCLINATION":43.0003,"RA_OF_ASC_NODE":4.4587,"ARG_OF_PERICENTER":267.3915,"MEAN_ANOMALY":92.4154,"EPHEMERIS_TYPE":0,"CLASSIFICATION_TYPE":"U","NORAD_CAT_ID":58133,"ELEMENT_SET_NO":999,"REV_AT_EPOCH":616,"BSTAR":-0.1023,"MEAN_MOTION_DOT":-0.02113763,"MEAN_MOTION_DDOT":0},{"OBJECT_NAME":"STARLINK-30761","OBJECT_ID":"2023-162S","EPOCH":"2023-11-23T22:00:00.999936","MEAN_MOTION":15.2826359,"ECCENTRICITY":9.96e-5,"INCLINATION":43.0003,"RA_OF_ASC_NODE":4.1528,"ARG_OF_PERICENTER":289.6455,"MEAN_ANOMALY":197.1662,"EPHEMERIS_TYPE":0,"CLASSIFICATION_TYPE":"U","NORAD_CAT_ID":58134,"ELEMENT_SET_NO":999,"REV_AT_EPOCH":607,"BSTAR":-0.084016,"MEAN_MOTION_DOT":-0.02120485,"MEAN_MOTION_DDOT":0}]
